{
  "type": "FeatureCollection",
  "features": [
    {
      "type": "Feature",
      "properties": {
        "norad_id": 35618,
        "name": "IRIDIUM 33 DEB",
        "group": "iridium-33-debris",
        "lat": -75.7051673153967,
        "lon": -178.16848382880778,
        "alt_km": 721.1307111753258,
        "timestamp": "2025-12-26T22:28:06.170422+00:00",
        "meta_object_name": "IRIDIUM 33 DEB",
        "meta_object_id": "1997-051QQ",
        "meta_epoch": "2025-12-26T06:24:30.351744",
        "meta_mean_motion": 14.52352312,
        "meta_eccentricity": 0.0027953,
        "meta_inclination": 86.3436,
        "meta_ra_of_asc_node": 347.5894,
        "meta_arg_of_pericenter": 336.1587,
        "meta_mean_anomaly": 23.8322,
        "meta_ephemeris_type": 0,
        "meta_classification_type": "U",
        "meta_norad_cat_id": 35618,
        "meta_element_set_no": 999,
        "meta_rev_at_epoch": 65590,
        "meta_bstar": 0.00055338,
        "meta_mean_motion_dot": 2.283e-05,
        "meta_mean_motion_ddot": 0,
        "tle_line1": "1 35618U 97051QQ  25360.26701796  .00002283  00000+0  55338-3 0  9990",
        "tle_line2": "2 35618  86.3436 347.5894 0027953 336.1587  23.8322 14.52352312655907"
      },
      "geometry": {
        "type": "Point",
        "coordinates": [
          -178.16848382880778,
          -75.7051673153967
        ]
      }
    },
    {
      "type": "Feature",
      "properties": {
        "norad_id": 35620,
        "name": "IRIDIUM 33 DEB",
        "group": "iridium-33-debris",
        "lat": -62.387197159360866,
        "lon": 38.40080299119826,
        "alt_km": 685.915990289941,
        "timestamp": "2025-12-26T22:28:06.170433+00:00",
        "meta_object_name": "IRIDIUM 33 DEB",
        "meta_object_id": "1997-051QS",
        "meta_epoch": "2025-12-26T07:59:16.150848",
        "meta_mean_motion": 14.38462656,
        "meta_eccentricity": 0.0138024,
        "meta_inclination": 86.3888,
        "meta_ra_of_asc_node": 211.721,
        "meta_arg_of_pericenter": 213.5543,
        "meta_mean_anomaly": 145.6858,
        "meta_ephemeris_type": 0,
        "meta_classification_type": "U",
        "meta_norad_cat_id": 35620,
        "meta_element_set_no": 999,
        "meta_rev_at_epoch": 60161,
        "meta_bstar": 0.0045009,
        "meta_mean_motion_dot": 0.00015388,
        "meta_mean_motion_ddot": 0,
        "tle_line1": "1 35620U 97051QS  25360.33282582  .00015388  00000+0  45009-2 0  9991",
        "tle_line2": "2 35620  86.3888 211.7210 0138024 213.5543 145.6858 14.38462656601610"
      },
      "geometry": {
        "type": "Point",
        "coordinates": [
          38.40080299119826,
          -62.387197159360866
        ]
      }
    },
    {
      "type": "Feature",
      "properties": {
        "norad_id": 35622,
        "name": "IRIDIUM 33 DEB",
        "group": "iridium-33-debris",
        "lat": 23.581596112793818,
        "lon": 74.93818824165152,
        "alt_km": 548.0766365125282,
        "timestamp": "2025-12-26T22:28:06.170443+00:00",
        "meta_object_name": "IRIDIUM 33 DEB",
        "meta_object_id": "1997-051QU",
        "meta_epoch": "2025-12-26T17:07:03.979200",
        "meta_mean_motion": 15.06225935,
        "meta_eccentricity": 0.0002909,
        "meta_inclination": 86.1991,
        "meta_ra_of_asc_node": 256.7113,
        "meta_arg_of_pericenter": 269.1211,
        "meta_mean_anomaly": 119.0846,
        "meta_ephemeris_type": 0,
        "meta_classification_type": "U",
        "meta_norad_cat_id": 35622,
        "meta_element_set_no": 999,
        "meta_rev_at_epoch": 87570,
        "meta_bstar": 0.0038578,
        "meta_mean_motion_dot": 0.00056954,
        "meta_mean_motion_ddot": 0,
        "tle_line1": "1 35622U 97051QU  25360.71324050  .00056954  00000+0  38578-2 0  9999",
        "tle_line2": "2 35622  86.1991 256.7113 0002909 269.1211 119.0846 15.06225935875705"
      },
      "geometry": {
        "type": "Point",
        "coordinates": [
          74.93818824165152,
          23.581596112793818
        ]
      }
    },
    {
      "type": "Feature",
      "properties": {
        "norad_id": 35628,
        "name": "IRIDIUM 33 DEB",
        "group": "iridium-33-debris",
        "lat": -37.18682871944084,
        "lon": -174.48707153178543,
        "alt_km": 672.4567152457566,
        "timestamp": "2025-12-26T22:28:06.170454+00:00",
        "meta_object_name": "IRIDIUM 33 DEB",
        "meta_object_id": "1997-051RA",
        "meta_epoch": "2025-12-26T06:45:19.101312",
        "meta_mean_motion": 14.67776082,
        "meta_eccentricity": 0.0009237,
        "meta_inclination": 86.3573,
        "meta_ra_of_asc_node": 3.0346,
        "meta_arg_of_pericenter": 290.0377,
        "meta_mean_anomaly": 69.9843,
        "meta_ephemeris_type": 0,
        "meta_classification_type": "U",
        "meta_norad_cat_id": 35628,
        "meta_element_set_no": 999,
        "meta_rev_at_epoch": 86645,
        "meta_bstar": 0.0014359,
        "meta_mean_motion_dot": 8.215e-05,
        "meta_mean_motion_ddot": 0,
        "tle_line1": "1 35628U 97051RA  25360.28147108  .00008215  00000+0  14359-2 0  9992",
        "tle_line2": "2 35628  86.3573   3.0346 0009237 290.0377  69.9843 14.67776082866459"
      },
      "geometry": {
        "type": "Point",
        "coordinates": [
          -174.48707153178543,
          -37.18682871944084
        ]
      }
    },
    {
      "type": "Feature",
      "properties": {
        "norad_id": 35631,
        "name": "IRIDIUM 33 DEB",
        "group": "iridium-33-debris",
        "lat": 24.793179165836158,
        "lon": -166.8202243802567,
        "alt_km": 731.2805042438231,
        "timestamp": "2025-12-26T22:28:06.170464+00:00",
        "meta_object_name": "IRIDIUM 33 DEB",
        "meta_object_id": "1997-051RD",
        "meta_epoch": "2025-12-25T01:14:45.811104",
        "meta_mean_motion": 14.47344148,
        "meta_eccentricity": 0.00192475,
        "meta_inclination": 86.3663,
        "meta_ra_of_asc_node": 15.6731,
        "meta_arg_of_pericenter": 81.4254,
        "meta_mean_anomaly": 341.8279,
        "meta_ephemeris_type": 0,
        "meta_classification_type": "U",
        "meta_norad_cat_id": 35631,
        "meta_element_set_no": 999,
        "meta_rev_at_epoch": 87375,
        "meta_bstar": 0.00038061169,
        "meta_mean_motion_dot": 1.417e-05,
        "meta_mean_motion_ddot": 0,
        "tle_line1": "1 35631U 97051RD  25359.05191911  .00001417  00000+0  38061-3 0  9994",
        "tle_line2": "2 35631  86.3663  15.6731 0019247  81.4254 341.8279 14.47344148873756"
      },
      "geometry": {
        "type": "Point",
        "coordinates": [
          -166.8202243802567,
          24.793179165836158
        ]
      }
    },
    {
      "type": "Feature",
      "properties": {
        "norad_id": 35680,
        "name": "IRIDIUM 33 DEB",
        "group": "iridium-33-debris",
        "lat": -43.37237137239639,
        "lon": -161.07245363082873,
        "alt_km": 721.1449195154955,
        "timestamp": "2025-12-26T22:28:06.170474+00:00",
        "meta_object_name": "IRIDIUM 33 DEB",
        "meta_object_id": "1997-051RJ",
        "meta_epoch": "2025-12-26T12:00:19.371744",
        "meta_mean_motion": 14.21136562,
        "meta_eccentricity": 0.0150773,
        "meta_inclination": 86.1027,
        "meta_ra_of_asc_node": 15.428,
        "meta_arg_of_pericenter": 234.4546,
        "meta_mean_anomaly": 280.2175,
        "meta_ephemeris_type": 0,
        "meta_classification_type": "U",
        "meta_norad_cat_id": 35680,
        "meta_element_set_no": 999,
        "meta_rev_at_epoch": 60896,
        "meta_bstar": 0.0033475,
        "meta_mean_motion_dot": 8.18e-05,
        "meta_mean_motion_ddot": 0,
        "tle_line1": "1 35680U 97051RJ  25360.50022421  .00008180  00000+0  33475-2 0  9996",
        "tle_line2": "2 35680  86.1027  15.4280 0150773 234.4546 280.2175 14.21136562608964"
      },
      "geometry": {
        "type": "Point",
        "coordinates": [
          -161.07245363082873,
          -43.37237137239639
        ]
      }
    },
    {
      "type": "Feature",
      "properties": {
        "norad_id": 35744,
        "name": "IRIDIUM 33 DEB",
        "group": "iridium-33-debris",
        "lat": -70.57274021014682,
        "lon": -51.46417135362577,
        "alt_km": 677.515211044386,
        "timestamp": "2025-12-26T22:28:06.170484+00:00",
        "meta_object_name": "IRIDIUM 33 DEB",
        "meta_object_id": "1997-051RX",
        "meta_epoch": "2025-12-24T15:17:19.932000",
        "meta_mean_motion": 14.71145759,
        "meta_eccentricity": 0.00219113,
        "meta_inclination": 86.3301,
        "meta_ra_of_asc_node": 320.0594,
        "meta_arg_of_pericenter": 150.6894,
        "meta_mean_anomaly": 209.5557,
        "meta_ephemeris_type": 0,
        "meta_classification_type": "U",
        "meta_norad_cat_id": 35744,
        "meta_element_set_no": 999,
        "meta_rev_at_epoch": 87506,
        "meta_bstar": 0.0011850025,
        "meta_mean_motion_dot": 7.344e-05,
        "meta_mean_motion_ddot": 0,
        "tle_line1": "1 35744U 97051RX  25358.63703625  .00007344  00000+0  11850-2 0  9994",
        "tle_line2": "2 35744  86.3301 320.0594 0021911 150.6894 209.5557 14.71145759875069"
      },
      "geometry": {
        "type": "Point",
        "coordinates": [
          -51.46417135362577,
          -70.57274021014682
        ]
      }
    }
  ]
}